OBJECT_NAME,OBJECT_ID,EPOCH,MEAN_MOTION,ECCENTRICITY,INCLINATION,RA_OF_ASC_NODE,ARG_OF_PERICENTER,MEAN_ANOMALY,EPHEMERIS_TYPE,CLASSIFICATION_TYPE,NORAD_CAT_ID,ELEMENT_SET_NO,REV_AT_EPOCH,BSTAR,MEAN_MOTION_DOT,MEAN_MOTION_DDOT
STARLINK-37359,2026-114G,2026-06-12T05:02:45.308832,15.78130047,.00015756,53.1591,227.2771,49.7035,310.4124,0,U,69188,999,398,.12726914E-2,.22704E-2,0
STARLINK-37440,2026-114H,2026-06-12T05:32:25.526400,15.80924853,.0001657,53.1595,226.6731,60.8268,299.2921,0,U,69189,999,399,.91625579E-3,.184497E-2,0
STARLINK-37282,2026-114J,2026-06-12T04:53:27.818016,15.78100121,.00017753,53.1593,227.2332,31.9364,328.1765,0,U,69190,999,398,.12535151E-2,.223209E-2,0
STARLINK-37422,2026-114K,2026-06-12T06:11:41.575776,15.80928110,.000128,53.1583,226.8582,74.9487,285.1677,0,U,69191,999,399,.92095144E-3,.185494E-2,0
STARLINK-37424,2026-114L,2026-06-12T04:53:37.112928,15.78119563,.00013803,53.1591,227.2351,43.1729,316.9401,0,U,69192,999,398,.12558209E-2,.22383E-2,0
STARLINK-36666,2026-114M,2026-06-12T06:12:00.760032,15.80922388,.00013367,53.1583,226.8590,80.9083,279.2091,0,U,69193,999,399,.86456286E-3,.17381E-2,0
STARLINK-37355,2026-114N,2026-06-12T06:10:56.083584,15.80918407,.00019637,53.1581,226.8535,58.8416,301.2799,0,U,69194,999,399,.86440491E-3,.17375E-2,0
STARLINK-37166,2026-114P,2026-06-12T06:08:46.320288,15.80929377,.00012835,53.1580,226.8445,70.1185,289.9976,0,U,69195,999,399,.90625237E-3,.182468E-2,0
STARLINK-36933,2026-114Q,2026-06-12T06:09:51.096960,15.80926201,.00012873,53.1583,226.8498,77.7879,282.3288,0,U,69196,999,399,.89207075E-3,.179514E-2,0
STARLINK-37419,2026-114R,2026-06-12T06:07:41.058048,15.80873015,.00003415,53.1580,226.8396,169.9060,190.1969,0,U,69197,999,399,.1445252E-2,.294507E-2,0
STARLINK-37321,2026-114S,2026-06-12T06:06:36.631296,15.80912068,.0001309,53.1584,226.8345,66.4677,293.6484,0,U,69198,999,399,.71067725E-3,.142153E-2,0
STARLINK-37406,2026-114T,2026-06-12T06:05:32.117280,15.80929388,.00019983,53.1580,226.8294,51.5376,308.5826,0,U,69199,999,399,.98349912E-3,.198457E-2,0
STARLINK-37761,2026-114U,2026-06-12T06:04:27.113376,15.80914863,.00013417,53.1579,226.8238,77.9729,282.1445,0,U,69200,999,399,.79095096E-3,.158615E-2,0
STARLINK-37754,2026-114V,2026-06-12T06:03:05.733216,15.80966661,.00018602,53.1578,226.8173,49.0063,311.1121,0,U,69201,999,399,.14159255E-2,.289581E-2,0
STARLINK-37649,2026-114W,2026-06-12T06:02:17.494368,15.80942600,.00022239,53.1581,226.8143,34.9871,325.1298,0,U,69202,999,399,.10677731E-2,.216102E-2,0
STARLINK-37604,2026-114X,2026-06-12T06:01:12.531072,15.80937187,.00011225,53.1581,226.8089,88.0148,272.1003,0,U,69203,999,399,.99999335E-3,.201947E-2,0
STARLINK-37669,2026-114Y,2026-06-12T06:00:07.825248,15.80930508,.00015376,53.1583,226.8044,63.9102,296.2079,0,U,69204,999,399,.95216236E-3,.191972E-2,0
STARLINK-37691,2026-114Z,2026-06-12T06:08:17.822112,15.78187697,.00032891,53.1588,226.8401,55.3608,304.7723,0,U,69205,999,399,-.40850319E-3,-.71459E-3,0
STARLINK-37671,2026-114AA,2026-06-12T04:26:58.646400,15.80609416,.00017777,53.1584,227.1113,27.3460,332.7656,0,U,69206,999,398,-.13693275E-2,-.25986E-2,0
STARLINK-37647,2026-114AB,2026-06-12T05:59:03.151392,15.80936746,.00021993,53.1585,226.7990,32.0879,328.0277,0,U,69207,999,399,.10449758E-2,.211297E-2,0
STARLINK-37562,2026-114AC,2026-06-12T06:00:02.999808,15.78024463,.00013319,53.1597,226.8075,108.8922,248.6548,0,U,69208,999,402,.6479019E-3,.113171E-2,0
STARLINK-37682,2026-114AD,2026-06-12T05:54:43.809696,15.80845840,.00018276,53.1584,226.7779,48.1811,311.9368,0,U,69209,999,399,.17634541E-2,.36188E-2,0
STARLINK-37402,2026-114AE,2026-06-12T05:53:39.303456,15.80952168,.00033881,53.1582,226.7727,26.6274,333.4922,0,U,69210,999,399,.15280427E-2,.313258E-2,0
STARLINK-37613,2026-115A,2026-06-12T06:00:02.999808,15.49997321,.00008905,97.2839,180.3158,33.2950,109.9069,0,U,69211,999,389,-.24258187E-1,-.1233926E-1,0
STARLINK-37713,2026-115B,2026-06-12T06:00:02.999808,15.65587549,.00011117,97.2841,180.4076,67.9135,282.1680,0,U,69212,999,389,-.24977508E-1,-.2177189E-1,0
STARLINK-37716,2026-115C,2026-06-12T06:00:02.999808,15.70918231,.00013757,97.2837,180.4336,70.2544,348.8597,0,U,69213,999,390,-.24886565E-1,-.268276E-1,0
STARLINK-37620,2026-115D,2026-06-12T06:00:02.999808,15.49177864,.00004768,97.2843,180.2812,51.5917,12.3344,0,U,69214,999,390,.21845969E-3,.11804E-3,0
STARLINK-37700,2026-115E,2026-06-12T06:00:02.999808,15.49168236,.0001079,97.2840,180.1944,91.8143,120.4591,0,U,69215,999,390,.62650775E-3,.34106E-3,0
STARLINK-37766,2026-115F,2026-06-12T06:00:02.999808,15.75190454,.00017003,97.2838,180.4466,69.4083,21.6253,0,U,69216,999,390,-.1930294E-1,-.2468158E-1,0
STARLINK-37763,2026-115G,2026-06-12T06:00:02.999808,15.69984592,.00013411,97.2838,180.4306,79.7879,332.5909,0,U,69217,999,390,-.25668047E-1,-.2663592E-1,0
