STARLINK-37359          
1 69188U 26114G   26163.21024663  .00227040  00000+0  12727-2 0  9993
2 69188  53.1591 227.2771 0001575  49.7035 310.4124 15.78130047  3983
STARLINK-37440          
1 69189U 26114H   26163.23085100  .00184497  00000+0  91626-3 0  9993
2 69189  53.1595 226.6731 0001657  60.8268 299.2921 15.80924853  3999
STARLINK-37282          
1 69190U 26114J   26163.20379419  .00223209  00000+0  12535-2 0  9997
2 69190  53.1593 227.2332 0001775  31.9364 328.1765 15.78100121  3988
STARLINK-37422          
1 69191U 26114K   26163.25812009  .00185494  00000+0  92095-3 0  9993
2 69191  53.1583 226.8582 0001280  74.9487 285.1677 15.80928110  3998
STARLINK-37424          
1 69192U 26114L   26163.20390177  .00223830  00000+0  12558-2 0  9998
2 69192  53.1591 227.2351 0001380  43.1729 316.9401 15.78119563  3983
STARLINK-36666          
1 69193U 26114M   26163.25834213  .00173810  00000+0  86456-3 0  9999
2 69193  53.1583 226.8590 0001336  80.9083 279.2091 15.80922388  3995
STARLINK-37355          
1 69194U 26114N   26163.25759356  .00173750  00000+0  86440-3 0  9990
2 69194  53.1581 226.8535 0001963  58.8416 301.2799 15.80918407  3991
STARLINK-37166          
1 69195U 26114P   26163.25609167  .00182468  00000+0  90625-3 0  9991
2 69195  53.1580 226.8445 0001283  70.1185 289.9976 15.80929377  3993
STARLINK-36933          
1 69196U 26114Q   26163.25684140  .00179514  00000+0  89207-3 0  9998
2 69196  53.1583 226.8498 0001287  77.7879 282.3288 15.80926201  3998
STARLINK-37419          
1 69197U 26114R   26163.25533632  .00294507  00000+0  14453-2 0  9998
2 69197  53.1580 226.8396 0000341 169.9060 190.1969 15.80873015  3995
STARLINK-37321          
1 69198U 26114S   26163.25459064  .00142153  00000+0  71068-3 0  9990
2 69198  53.1584 226.8345 0001309  66.4677 293.6484 15.80912068  3997
STARLINK-37406          
1 69199U 26114T   26163.25384395  .00198457  00000+0  98350-3 0  9996
2 69199  53.1580 226.8294 0001998  51.5376 308.5826 15.80929388  3991
STARLINK-37761          
1 69200U 26114U   26163.25309159  .00158615  00000+0  79095-3 0  9991
2 69200  53.1579 226.8238 0001341  77.9729 282.1445 15.80914863  3992
STARLINK-37754          
1 69201U 26114V   26163.25214969  .00289581  00000+0  14159-2 0  9992
2 69201  53.1578 226.8173 0001860  49.0063 311.1121 15.80966661  3994
STARLINK-37649          
1 69202U 26114W   26163.25159137  .00216102  00000+0  10678-2 0  9999
2 69202  53.1581 226.8143 0002223  34.9871 325.1298 15.80942600  3997
STARLINK-37604          
1 69203U 26114X   26163.25083948  .00201947  00000+0  99999-3 0  9991
2 69203  53.1581 226.8089 0001122  88.0148 272.1003 15.80937187  3990
STARLINK-37669          
1 69204U 26114Y   26163.25009057  .00191972  00000+0  95216-3 0  9995
2 69204  53.1583 226.8044 0001537  63.9102 296.2079 15.80930508  3996
STARLINK-37691          
1 69205U 26114Z   26163.25576183 -.00071459  00000+0 -40850-3 0  9998
2 69205  53.1588 226.8401 0003289  55.3608 304.7723 15.78187697  3992
STARLINK-37671          
1 69206U 26114AA  26163.18540100 -.00259860  00000+0 -13693-2 0  9999
2 69206  53.1584 227.1113 0001777  27.3460 332.7656 15.80609416  3984
STARLINK-37647          
1 69207U 26114AB  26163.24934203  .00211297  00000+0  10450-2 0  9996
2 69207  53.1585 226.7990 0002199  32.0879 328.0277 15.80936746  3997
STARLINK-37562          
1 69208U 26114AC  26163.25003472  .00113171  00000+0  64790-3 0  9992
2 69208  53.1597 226.8075 0001331 108.8922 248.6548 15.78024463  4028
STARLINK-37682          
1 69209U 26114AD  26163.24634039  .00361880  00000+0  17635-2 0  9998
2 69209  53.1584 226.7779 0001827  48.1811 311.9368 15.80845840  3990
STARLINK-37402          
1 69210U 26114AE  26163.24559379  .00313258  00000+0  15280-2 0  9993
2 69210  53.1582 226.7727 0003388  26.6274 333.4922 15.80952168  3998
STARLINK-37613          
1 69211U 26115A   26163.25003472 -.01233926  00000+0 -24258-1 0  9994
2 69211  97.2839 180.3158 0000890  33.2950 109.9069 15.49997321  3898
STARLINK-37713          
1 69212U 26115B   26163.25003472 -.02177189  00000+0 -24978-1 0  9993
2 69212  97.2841 180.4076 0001111  67.9135 282.1680 15.65587549  3896
STARLINK-37716          
1 69213U 26115C   26163.25003472 -.02682760  00000+0 -24887-1 0  9999
2 69213  97.2837 180.4336 0001375  70.2544 348.8597 15.70918231  3905
STARLINK-37620          
1 69214U 26115D   26163.25003472  .00011804  00000+0  21846-3 0  9995
2 69214  97.2843 180.2812 0000476  51.5917  12.3344 15.49177864  3905
STARLINK-37700          
1 69215U 26115E   26163.25003472  .00034106  00000+0  62651-3 0  9995
2 69215  97.2840 180.1944 0001079  91.8143 120.4591 15.49168236  3904
STARLINK-37766          
1 69216U 26115F   26163.25003472 -.02468158  00000+0 -19303-1 0  9992
2 69216  97.2838 180.4466 0001700  69.4083  21.6253 15.75190454  3902
STARLINK-37763          
1 69217U 26115G   26163.25003472 -.02663592  00000+0 -25668-1 0  9993
2 69217  97.2838 180.4306 0001341  79.7879 332.5909 15.69984592  3903
